[
    {
        "CCSDS_OMM_VERS": "3.0",
        "COMMENT": "GENERATED VIA SPACE-TRACK.ORG API",
        "CREATION_DATE": "2025-03-02T18:08:23",
        "ORIGINATOR": "18 SPCS",
        "OBJECT_NAME": "BEIDOU 3",
        "OBJECT_ID": "2010-001A",
        "CENTER_NAME": "EARTH",
        "REF_FRAME": "TEME",
        "TIME_SYSTEM": "UTC",
        "MEAN_ELEMENT_THEORY": "SGP4",
        "EPOCH": "2025-03-02T14:47:41.914176",
        "MEAN_MOTION": "1.00269856",
        "ECCENTRICITY": "0.00051390",
        "INCLINATION": "3.1942",
        "RA_OF_ASC_NODE": "60.3547",
        "ARG_OF_PERICENTER": "286.9587",
        "MEAN_ANOMALY": "175.6886",
        "EPHEMERIS_TYPE": "0",
        "CLASSIFICATION_TYPE": "U",
        "NORAD_CAT_ID": "36287",
        "ELEMENT_SET_NO": "999",
        "REV_AT_EPOCH": "5544",
        "BSTAR": "0.00000000000000",
        "MEAN_MOTION_DOT": "-0.00000282",
        "MEAN_MOTION_DDOT": "0.0000000000000",
        "SEMIMAJOR_AXIS": "42165.273",
        "PERIOD": "1436.125",
        "APOAPSIS": "35808.806",
        "PERIAPSIS": "35765.469",
        "OBJECT_TYPE": "PAYLOAD",
        "RCS_SIZE": "LARGE",
        "COUNTRY_CODE": "PRC",
        "LAUNCH_DATE": "2010-01-16",
        "SITE": "XSC",
        "DECAY_DATE": null,
        "FILE": "4657142",
        "GP_ID": "282082463",
        "TLE_LINE0": "0 BEIDOU 3",
        "TLE_LINE1": "1 36287U 10001A   25061.61645734 -.00000282  00000-0  00000-0 0  9991",
        "TLE_LINE2": "2 36287   3.1942  60.3547 0005139 286.9587 175.6886  1.00269856 55441"
    }
]